OBJECT_NAME,OBJECT_ID,EPOCH,MEAN_MOTION,ECCENTRICITY,INCLINATION,RA_OF_ASC_NODE,ARG_OF_PERICENTER,MEAN_ANOMALY,EPHEMERIS_TYPE,CLASSIFICATION_TYPE,NORAD_CAT_ID,ELEMENT_SET_NO,REV_AT_EPOCH,BSTAR,MEAN_MOTION_DOT,MEAN_MOTION_DDOT
SAUDISAT 1C (SO-50),2002-058C,2026-06-26T22:23:24.650016,14.83066213,.00750442,64.5520,98.8324,260.6581,98.6035,0,U,27607,999,26590,.12577976E-3,.92E-5,0
SAUDISAT 2,2004-025F,2026-06-26T22:05:04.952544,14.56689066,.00234316,98.5508,178.1537,266.7691,93.0825,0,U,28371,999,16716,.66866562E-4,.25E-5,0
SAUDISAT 3,2007-012B,2026-06-26T20:19:39.616320,14.71430754,.00142774,98.1458,128.2540,191.5802,168.5078,0,U,31118,999,2916,.48539746E-4,.25E-5,0
PISAT,2016-059B,2026-06-26T22:51:46.582272,14.68999168,.00291963,97.8180,177.9859,171.3443,188.8272,0,U,41784,999,52117,.16111954E-3,.903E-5,0
FLYING LAPTOP,2017-042G,2026-06-26T23:36:58.909824,15.01208360,.00199615,97.4721,333.1427,90.2626,270.0886,0,U,42831,999,48792,.36994703E-3,.4711E-4,0
SALSAT,2020-068K,2026-06-26T22:57:28.471392,15.29932421,.00078227,97.8848,181.6168,266.2984,93.7361,0,U,46495,999,31685,.2860148E-3,.8212E-4,0
